*******************************************************************************
 Revised: Aug 19, 2022   Voyager 1 Spacecraft (interplanetary) / (Sun)     -31
                        http://www.jpl.nasa.gov/missions/voyager-1/

 BACKGROUND
   See the web-page above for information on the Voyager Mission

 TIMELINE
   1977-Sep-06  Launch from Kennedy Space Center @ 12:56 UTC
   1979-Mar-05  Jupiter closest-approach, Io imaging
   1980-Nov-12  Saturn encounter, Titan
   1990-Jan-01  Interstellar mission begins
   1990-Feb-14  Final Voyager image return
   1992-Apr-24  Final two-way tracking measurements
   1998-Feb-17  Exceeds Pioneer 10 distance (most distant man-made object)
   2004-Dec-15  Crosses solar system "bow shock" boundary
   2012-Aug-25  Passes heliopause and termination shock boundary

 SPACECRAFT TRAJECTORY:
   This trajectory is composed of two merged sections:

     #1) 1977-Sep-5 to 1981-Jan-1:
          A patched conic mission-design type trajectory in which the conics 
          were constructed to approximately match specific events, such as
          satellite encounters, providing a rough accuracy. 

     #2) 1981-Jan-1 to 2100-Jan-1 
          Refit of tracking data spanning 1981-1992 (end of two-way coherent 
          transponder data). Done in 2022 by R. Jacobson (former Voyager
          navigation) using DE440 to generate a new solution and prediction. 

   The reconstruction done in 2022 estimated:
      - Epoch state vector
      - Constant and stochastic non-gravitational accelerations 
         (to account for the activity of three-axis attitude control system)
      - Thermal radiation from RTG power sources
      - Mismodelling of solar pressure  
      - 96 impulsive maneuvers through Feb 1992

   Note there has been no new tracking data possible since 1992. This is a
   different issue from on-board telemetry, which continued beyond that date. 

   The 2022 update refit the existing old tracking data using modern approaches
   and standards to allow consistent extrapolation to 2100.

   Formal predicted geocentric pointing uncertainty on 2030-Jan-1:
     RA +/- 1.701 arcseconds, DEC +/- 1.535 arcseconds

   This uncertainty is consistent with the new solution's difference with 
   the A54206 prediction made in 1990. 
 
   Tracking data used in 2022 solution:
     Points Type       First point            Last point       residual rms
       2366   F2   01-JAN-1981 05:14:00  15-APR-1989 08:09:00  0.133 mm/s
       2084   F3   07-JAN-1981 12:15:00  24-APR-1992 14:04:00  0.153 mm/s
       5191  PRA   01-JAN-1981 03:52:18  20-JAN-1989 14:13:59  228 m
         67  SRA   04-MAR-1989 10:58:56  13-OCT-1991 04:49:30  227 m
*******************************************************************************


*******************************************************************************
Ephemeris / WWW_USER Thu Jul 24 16:56:20 2025 Pasadena, USA      / Horizons
*******************************************************************************
Target body name: Voyager 1 (spacecraft) (-31)    {source: Voyager_1_ST+refit2022_m}
Center body name: Solar System Barycenter (0)     {source: DE441}
Center-site name: BODY CENTER
*******************************************************************************
Start time      : A.D. 1977-Sep-05 13:59:24.3830 TDB
Stop  time      : A.D. 2030-Jan-01 00:00:00.0000 TDB
Step-size       : 1440 minutes
*******************************************************************************
Center geodetic : 0.0, 0.0, 0.0                   {E-lon(deg),Lat(deg),Alt(km)}
Center cylindric: 0.0, 0.0, 0.0                   {E-lon(deg),Dxy(km),Dz(km)}
Center radii    : (undefined)
Output units    : KM-S
Calendar mode   : Mixed Julian/Gregorian
Output type     : GEOMETRIC cartesian states
Output format   : 1 (position only)
Reference frame : Ecliptic of J2000.0
*******************************************************************************
JDTDB
   X     Y     Z
*******************************************************************************
$$SOE
2453380.082921099 = A.D. 2005-Jan-09 13:59:24.3830 TDB 
 X =-3.385262229724138E+09 Y =-1.108647903001501E+10 Z = 8.030457046093617E+09
2453381.082921099 = A.D. 2005-Jan-10 13:59:24.3830 TDB 
 X =-3.385444954243365E+09 Y =-1.108767187622767E+10 Z = 8.031318784279009E+09
2453382.082921099 = A.D. 2005-Jan-11 13:59:24.3830 TDB 
 X =-3.385627677545558E+09 Y =-1.108886471851315E+10 Z = 8.032180519642367E+09
2453383.082921099 = A.D. 2005-Jan-12 13:59:24.3830 TDB 
 X =-3.385810399631024E+09 Y =-1.109005755687226E+10 Z = 8.033042252184273E+09
2453384.082921099 = A.D. 2005-Jan-13 13:59:24.3830 TDB 
 X =-3.385993120500073E+09 Y =-1.109125039130580E+10 Z = 8.033903981905310E+09
2453385.082921099 = A.D. 2005-Jan-14 13:59:24.3830 TDB 
 X =-3.386175840153013E+09 Y =-1.109244322181457E+10 Z = 8.034765708806057E+09
2453386.082921099 = A.D. 2005-Jan-15 13:59:24.3830 TDB 
 X =-3.386358558590152E+09 Y =-1.109363604839939E+10 Z = 8.035627432887094E+09
2453387.082921099 = A.D. 2005-Jan-16 13:59:24.3830 TDB 
 X =-3.386541275811799E+09 Y =-1.109482887106104E+10 Z = 8.036489154149008E+09
2453388.082921099 = A.D. 2005-Jan-17 13:59:24.3830 TDB 
 X =-3.386723991818262E+09 Y =-1.109602168980033E+10 Z = 8.037350872592375E+09
2453389.082921099 = A.D. 2005-Jan-18 13:59:24.3830 TDB 
 X =-3.386906706609848E+09 Y =-1.109721450461807E+10 Z = 8.038212588217779E+09
2453390.082921099 = A.D. 2005-Jan-19 13:59:24.3830 TDB 
 X =-3.387089420186867E+09 Y =-1.109840731551505E+10 Z = 8.039074301025801E+09
2453391.082921099 = A.D. 2005-Jan-20 13:59:24.3830 TDB 
 X =-3.387272132549625E+09 Y =-1.109960012249208E+10 Z = 8.039936011017017E+09
2453392.082921099 = A.D. 2005-Jan-21 13:59:24.3830 TDB 
 X =-3.387454843698431E+09 Y =-1.110079292554996E+10 Z = 8.040797718192014E+09
2453393.082921099 = A.D. 2005-Jan-22 13:59:24.3830 TDB 
 X =-3.387637553633593E+09 Y =-1.110198572468948E+10 Z = 8.041659422551367E+09
2453394.082921099 = A.D. 2005-Jan-23 13:59:24.3830 TDB 
 X =-3.387820262355417E+09 Y =-1.110317851991146E+10 Z = 8.042521124095659E+09
2453395.082921099 = A.D. 2005-Jan-24 13:59:24.3830 TDB 
 X =-3.388002969864211E+09 Y =-1.110437131121668E+10 Z = 8.043382822825470E+09
2453396.082921099 = A.D. 2005-Jan-25 13:59:24.3830 TDB 
 X =-3.388185676160283E+09 Y =-1.110556409860595E+10 Z = 8.044244518741378E+09
2453397.082921099 = A.D. 2005-Jan-26 13:59:24.3830 TDB 
 X =-3.388368381243939E+09 Y =-1.110675688208007E+10 Z = 8.045106211843964E+09
2453398.082921099 = A.D. 2005-Jan-27 13:59:24.3830 TDB 
 X =-3.388551085115489E+09 Y =-1.110794966163984E+10 Z = 8.045967902133808E+09
2453399.082921099 = A.D. 2005-Jan-28 13:59:24.3830 TDB 
 X =-3.388733787775236E+09 Y =-1.110914243728605E+10 Z = 8.046829589611487E+09
2453400.082921099 = A.D. 2005-Jan-29 13:59:24.3830 TDB 
 X =-3.388916489223490E+09 Y =-1.111033520901952E+10 Z = 8.047691274277582E+09
2453401.082921099 = A.D. 2005-Jan-30 13:59:24.3830 TDB 
 X =-3.389099189460557E+09 Y =-1.111152797684103E+10 Z = 8.048552956132670E+09
2453402.082921099 = A.D. 2005-Jan-31 13:59:24.3830 TDB 
 X =-3.389281888486744E+09 Y =-1.111272074075138E+10 Z = 8.049414635177336E+09
2453403.082921099 = A.D. 2005-Feb-01 13:59:24.3830 TDB 
 X =-3.389464586302357E+09 Y =-1.111391350075138E+10 Z = 8.050276311412149E+09
2453404.082921099 = A.D. 2005-Feb-02 13:59:24.3830 TDB 
 X =-3.389647282907703E+09 Y =-1.111510625684181E+10 Z = 8.051137984837694E+09
2453405.082921099 = A.D. 2005-Feb-03 13:59:24.3830 TDB 
 X =-3.389829978303089E+09 Y =-1.111629900902349E+10 Z = 8.051999655454550E+09
2453406.082921099 = A.D. 2005-Feb-04 13:59:24.3830 TDB 
 X =-3.390012672488821E+09 Y =-1.111749175729720E+10 Z = 8.052861323263292E+09
2453407.082921099 = A.D. 2005-Feb-05 13:59:24.3830 TDB 
 X =-3.390195365465205E+09 Y =-1.111868450166374E+10 Z = 8.053722988264498E+09
2453408.082921099 = A.D. 2005-Feb-06 13:59:24.3830 TDB 
 X =-3.390378057232548E+09 Y =-1.111987724212392E+10 Z = 8.054584650458748E+09
2453409.082921099 = A.D. 2005-Feb-07 13:59:24.3830 TDB 
 X =-3.390560747791155E+09 Y =-1.112106997867852E+10 Z = 8.055446309846619E+09
2453410.082921099 = A.D. 2005-Feb-08 13:59:24.3830 TDB 
 X =-3.390743437141332E+09 Y =-1.112226271132835E+10 Z = 8.056307966428690E+09
2453411.082921099 = A.D. 2005-Feb-09 13:59:24.3830 TDB 
 X =-3.390926125283386E+09 Y =-1.112345544007419E+10 Z = 8.057169620205534E+09
2453412.082921099 = A.D. 2005-Feb-10 13:59:24.3830 TDB 
 X =-3.391108812217623E+09 Y =-1.112464816491686E+10 Z = 8.058031271177734E+09
2453413.082921099 = A.D. 2005-Feb-11 13:59:24.3830 TDB 
 X =-3.391291497944347E+09 Y =-1.112584088585714E+10 Z = 8.058892919345862E+09
2453414.082921099 = A.D. 2005-Feb-12 13:59:24.3830 TDB 
 X =-3.391474182463865E+09 Y =-1.112703360289583E+10 Z = 8.059754564710501E+09
2453415.082921099 = A.D. 2005-Feb-13 13:59:24.3830 TDB 
 X =-3.391656865776483E+09 Y =-1.112822631603372E+10 Z = 8.060616207272223E+09
2453416.082921099 = A.D. 2005-Feb-14 13:59:24.3830 TDB 
 X =-3.391839547882504E+09 Y =-1.112941902527161E+10 Z = 8.061477847031603E+09
2453417.082921099 = A.D. 2005-Feb-15 13:59:24.3830 TDB 
 X =-3.392022228782237E+09 Y =-1.113061173061030E+10 Z = 8.062339483989223E+09
2453418.082921099 = A.D. 2005-Feb-16 13:59:24.3830 TDB 
 X =-3.392204908475984E+09 Y =-1.113180443205058E+10 Z = 8.063201118145658E+09
2453419.082921099 = A.D. 2005-Feb-17 13:59:24.3830 TDB 
 X =-3.392387586964053E+09 Y =-1.113299712959324E+10 Z = 8.064062749501481E+09
2453420.082921099 = A.D. 2005-Feb-18 13:59:24.3830 TDB 
 X =-3.392570264246746E+09 Y =-1.113418982323908E+10 Z = 8.064924378057273E+09
2453421.082921099 = A.D. 2005-Feb-19 13:59:24.3830 TDB 
 X =-3.392752940324371E+09 Y =-1.113538251298890E+10 Z = 8.065786003813604E+09
2453422.082921099 = A.D. 2005-Feb-20 13:59:24.3830 TDB 
 X =-3.392935615197231E+09 Y =-1.113657519884348E+10 Z = 8.066647626771057E+09
2453423.082921099 = A.D. 2005-Feb-21 13:59:24.3830 TDB 
 X =-3.393118288865631E+09 Y =-1.113776788080362E+10 Z = 8.067509246930202E+09
